COSMOS 2507 (RODNIK-S *)
1 40920U 15050A   26167.26629550 -.00000008  00000+0 -12787-3 0  9990
2 40920  82.4932  80.2438 0010257 358.8571   1.2484 12.42926432486745
COSMOS 2508 (RODNIK-S *)
1 40921U 15050B   26167.22130859 -.00000001  00000+0 -79581-4 0  9995
2 40921  82.4885  78.7774 0015213  28.8902 331.3017 12.42913868486723
COSMOS 2509 (RODNIK-S *)
1 40922U 15050C   26167.24162337  .00000001  00000+0 -67579-4 0  9997
2 40922  82.4893  78.8670 0015755  44.8806 315.3545 12.42883344486768
LINGQIAO VIDEO A        
1 40959U 15057B   26167.27792280  .00000681  00000+0  10235-3 0  9992
2 40959  97.6613 162.1246 0015175 273.7286  86.2190 14.77391989575277
LINGQIAO VIDEO B        
1 40960U 15057C   26167.25466060  .00000395  00000+0  62054-4 0  9995
2 40960  97.6579 163.2662 0015310 273.8625  86.0836 14.77498079575311
JILIN-1                 
1 40961U 15057D   26167.26862056  .00000718  00000+0  10564-3 0  9999
2 40961  97.6508 166.6809 0015317 266.2872  93.6588 14.78159198575473
FOX-1A (AO-85)          
1 40967U 15058D   26166.74276637  .00002067  00000+0  19289-3 0  9994
2 40967  64.7762 283.4725 0130368  57.1508 304.2075 14.90963979113359
SINOD-D 1               
1 40968U 15058E   26167.00864877  .00002642  00000+0  21844-3 0  9993
2 40968  64.7759 262.6033 0118979  53.5359 307.6650 14.95899841116489
ELEKTRO-L 2             
1 41105U 15074A   26166.96906061 -.00000122  00000+0  00000+0 0  9990
2 41105   6.6903  70.5362 0001047 244.2830 283.7788  1.00270394 38498
DAMPE                   
1 41173U 15078A   26167.25325515  .00001483  00000+0  52344-4 0  9994
2 41173  97.4550 172.7157 0013833  80.1533 280.1269 15.30784778584405
ORBCOMM FM110           
1 41182U 15081D   26167.28208699  .00000587  00000+0  16038-3 0  9997
2 41182  47.0033   5.7226 0002527  70.1353 289.9805 14.58879506557496
ORBCOMM FM112           
1 41184U 15081F   26166.77303780  .00000520  00000+0  14621-3 0  9992
2 41184  46.9992 276.9346 0003652 211.8493 148.2172 14.58902578558743
ORBCOMM FM113           
1 41185U 15081G   26167.02356560  .00000312  00000+0  10215-3 0  9990
2 41185  47.0011 276.1255 0002213 220.0050 140.0673 14.58857538558765
ORBCOMM FM108           
1 41187U 15081J   26167.32840319  .00000299  00000+0  99554-4 0  9993
2 41187  47.0031 186.2578 0002924 218.5464 141.5214 14.58869229559957
ORBCOMM FM117           
1 41188U 15081K   26166.74602042  .00000224  00000+0  83708-4 0  9990
2 41188  46.9995 187.6455 0003413 219.0322 141.0318 14.58864211559919
ORBCOMM FM116           
1 41189U 15081L   26167.00043122  .00000533  00000+0  14896-3 0  9993
2 41189  47.0024 276.2334 0000613  54.7119 305.3825 14.58881857558768
HORYU-4                 
1 41340U 16012D   26166.43547623  .00392649  54783-4  97992-3 0  9990
2 41340  30.9849  91.8834 0005149 261.3375  98.6703 15.94546005570538
ZIYUAN 3-02 (ZY 3-02)   
1 41556U 16033A   26167.26894697  .00004321  00000+0  19499-3 0  9991
2 41556  97.3837 243.0615 0011212 293.3174  66.6882 15.21474434557847
CARTOSAT-2C             
1 41599U 16040A   26167.33598706  .00002269  00000+0  11100-3 0  9996
2 41599  97.4483 227.3258 0009968 132.7857 227.4218 15.19184680553584
LAPAN-A3                
1 41603U 16040E   26167.27738226  .00002939  00000+0  94134-4 0  9991
2 41603  97.1486 163.4530 0010987  28.8573 331.3275 15.33099705554674
GAOFEN-3                
1 41727U 16049A   26167.32081785  .00000260  00000+0  92221-4 0  9994
2 41727  98.4003 175.1198 0001386  99.6570 260.4776 14.42216219518528
CAS-2T & KS-1Q          
1 41847U 16066G   26167.20170864  .00001550  00000+0  22417-3 0  9992
2 41847  98.3821 242.9493 0342753 132.4604 230.6111 14.44691734504651
YUNHAI-1 01             
1 41857U 16068A   26167.32831990  .00000425  00000+0  17223-3 0  9991
2 41857  98.5823 178.3435 0006211  45.4682 314.7008 14.32705669501701
RESOURCESAT-2A          
1 41877U 16074A   26167.29659437 -.00000115  00000+0 -32085-4 0  9992
2 41877  98.7533 240.8081 0003348  85.8116 274.3444 14.21615648494175
