OBJECT_NAME,OBJECT_ID,EPOCH,MEAN_MOTION,ECCENTRICITY,INCLINATION,RA_OF_ASC_NODE,ARG_OF_PERICENTER,MEAN_ANOMALY,EPHEMERIS_TYPE,CLASSIFICATION_TYPE,NORAD_CAT_ID,ELEMENT_SET_NO,REV_AT_EPOCH,BSTAR,MEAN_MOTION_DOT,MEAN_MOTION_DDOT
COSMOS 2507 (RODNIK-S 13),2015-050A,2026-06-16T06:23:27.931200,12.42926432,.00102574,82.4932,80.2438,358.8571,1.2484,0,U,40920,999,48674,-.127869E-3,-.8E-7,0
COSMOS 2508 (RODNIK-S 14),2015-050B,2026-06-16T05:18:41.062176,12.42913868,.0015213,82.4885,78.7774,28.8902,331.3017,0,U,40921,999,48672,-.79580782E-4,-.1E-7,0
COSMOS 2509 (RODNIK-S 15),2015-050C,2026-06-16T05:47:56.259168,12.42883344,.00157557,82.4893,78.8670,44.8806,315.3545,0,U,40922,999,48676,-.67579431E-4,.1E-7,0
LINGQIAO VIDEO A,2015-057B,2026-06-16T06:40:12.529920,14.77391989,.00151752,97.6613,162.1246,273.7286,86.2190,0,U,40959,999,57527,.10235385E-3,.681E-5,0
LINGQIAO VIDEO B,2015-057C,2026-06-16T06:06:42.675840,14.77498079,.00153101,97.6579,163.2662,273.8625,86.0836,0,U,40960,999,57531,.62054431E-4,.395E-5,0
JILIN-1,2015-057D,2026-06-16T06:26:48.816384,14.78159198,.00153178,97.6508,166.6809,266.2872,93.6588,0,U,40961,999,57547,.10564428E-3,.718E-5,0
FOX-1A (AO-85),2015-058D,2026-06-15T17:49:35.014368,14.90963979,.01303689,64.7762,283.4725,57.1508,304.2075,0,U,40967,999,11335,.19289249E-3,.2067E-4,0
SINOD-D 1,2015-058E,2026-06-16T00:12:27.253728,14.95899841,.01189793,64.7759,262.6033,53.5359,307.6650,0,U,40968,999,11648,.2184397E-3,.2642E-4,0
ELEKTRO-L 2,2015-074A,2026-06-15T23:15:26.836704,1.00270394,.00010479,6.6903,70.5362,244.2830,283.7788,0,U,41105,999,3849,0,-.122E-5,0
DAMPE,2015-078A,2026-06-16T06:04:41.244960,15.30784778,.00138337,97.4550,172.7157,80.1533,280.1269,0,U,41173,999,58440,.52343755E-4,.1483E-4,0
ORBCOMM FM110,2015-081D,2026-06-16T06:46:12.315936,14.58879506,.00025277,47.0033,5.7226,70.1353,289.9805,0,U,41182,999,55749,.16038094E-3,.587E-5,0
ORBCOMM FM112,2015-081F,2026-06-15T18:33:10.465920,14.58902578,.00036529,46.9992,276.9346,211.8493,148.2172,0,U,41184,999,55874,.14620826E-3,.52E-5,0
ORBCOMM FM113,2015-081G,2026-06-16T00:33:56.067840,14.58857538,.00022137,47.0011,276.1255,220.0050,140.0673,0,U,41185,999,55876,.10215052E-3,.312E-5,0
ORBCOMM FM108,2015-081J,2026-06-16T07:52:54.035616,14.58869229,.0002924,47.0031,186.2578,218.5464,141.5214,0,U,41187,999,55995,.99553502E-4,.299E-5,0
ORBCOMM FM117,2015-081K,2026-06-15T17:54:16.164288,14.58864211,.00034136,46.9995,187.6455,219.0322,141.0318,0,U,41188,999,55991,.83708165E-4,.224E-5,0
ORBCOMM FM116,2015-081L,2026-06-16T00:00:37.257408,14.58881857,.00006136,47.0024,276.2334,54.7119,305.3825,0,U,41189,999,55876,.14895533E-3,.533E-5,0
HORYU-4,2016-012D,2026-06-15T10:27:05.146272,15.94546005,.00051492,30.9849,91.8834,261.3375,98.6703,0,U,41340,999,57053,.9799184E-3,.392649E-2,.54782598E-4
ZIYUAN 3-02 (ZY 3-02),2016-033A,2026-06-16T06:27:17.018208,15.21474434,.00112127,97.3837,243.0615,293.3174,66.6882,0,U,41556,999,55784,.19498937E-3,.4321E-4,0
CARTOSAT-2C,2016-040A,2026-06-16T08:03:49.281984,15.19184680,.00099683,97.4483,227.3258,132.7857,227.4218,0,U,41599,999,55358,.11099788E-3,.2269E-4,0
LAPAN-A3,2016-040E,2026-06-16T06:39:25.827264,15.33099705,.0010987,97.1486,163.4530,28.8573,331.3275,0,U,41603,999,55467,.94134268E-4,.2939E-4,0
GAOFEN-3,2016-049A,2026-06-16T07:41:58.662240,14.42216219,.00013863,98.4003,175.1198,99.6570,260.4776,0,U,41727,999,51852,.92221216E-4,.26E-5,0
CAS-2T & KS-1Q,2016-066G,2026-06-16T04:50:27.626496,14.44691734,.03427532,98.3821,242.9493,132.4604,230.6111,0,U,41847,999,50465,.22416632E-3,.155E-4,0
YUNHAI-1 01,2016-068A,2026-06-16T07:52:46.839360,14.32705669,.00062117,98.5823,178.3435,45.4682,314.7008,0,U,41857,999,50170,.17223031E-3,.425E-5,0
RESOURCESAT-2A,2016-074A,2026-06-16T07:07:05.753568,14.21615648,.00033489,98.7533,240.8081,85.8116,274.3444,0,U,41877,999,49417,-.32085475E-4,-.115E-5,0
